{
  "type": "FeatureCollection",
  "features": [
    {
      "type": "Feature",
      "properties": {
        "norad_id": 58647,
        "name": "TIANMU-1 13",
        "group": "weather",
        "lat": -55.08956341064304,
        "lon": 171.48071169920667,
        "alt_km": 496.9278753339204,
        "timestamp": "2025-12-08T10:52:02.591688+00:00",
        "meta_object_name": "TIANMU-1 13",
        "meta_object_id": "2023-205C",
        "meta_epoch": "2025-12-07T22:48:30.316032",
        "meta_mean_motion": 15.24433399,
        "meta_eccentricity": 0.00061293,
        "meta_inclination": 97.362,
        "meta_ra_of_asc_node": 1.6637,
        "meta_arg_of_pericenter": 289.1044,
        "meta_mean_anomaly": 70.953,
        "meta_ephemeris_type": 0,
        "meta_classification_type": "U",
        "meta_norad_cat_id": 58647,
        "meta_element_set_no": 999,
        "meta_rev_at_epoch": 10834,
        "meta_bstar": 0.00035090525,
        "meta_mean_motion_dot": 8.545e-05,
        "meta_mean_motion_ddot": 0,
        "tle_line1": "1 58647U 23205C   25341.95035088  .00008545  00000+0  35091-3 0  9997",
        "tle_line2": "2 58647  97.3620   1.6637 0006129 289.1044  70.9530 15.24433399108341"
      },
      "geometry": {
        "type": "Point",
        "coordinates": [
          171.48071169920667,
          -55.08956341064304
        ]
      }
    },
    {
      "type": "Feature",
      "properties": {
        "norad_id": 58648,
        "name": "TIANMU-1 14",
        "group": "weather",
        "lat": -32.703650967178866,
        "lon": 6.267746858679228,
        "alt_km": 494.7535124662427,
        "timestamp": "2025-12-08T10:52:02.591704+00:00",
        "meta_object_name": "TIANMU-1 14",
        "meta_object_id": "2023-205D",
        "meta_epoch": "2025-12-07T22:24:31.505472",
        "meta_mean_motion": 15.2441772,
        "meta_eccentricity": 0.00070092,
        "meta_inclination": 97.3552,
        "meta_ra_of_asc_node": 1.0007,
        "meta_arg_of_pericenter": 294.201,
        "meta_mean_anomaly": 65.8495,
        "meta_ephemeris_type": 0,
        "meta_classification_type": "U",
        "meta_norad_cat_id": 58648,
        "meta_element_set_no": 999,
        "meta_rev_at_epoch": 10834,
        "meta_bstar": 0.00036283337,
        "meta_mean_motion_dot": 8.836e-05,
        "meta_mean_motion_ddot": 0,
        "tle_line1": "1 58648U 23205D   25341.93369798  .00008836  00000+0  36283-3 0  9991",
        "tle_line2": "2 58648  97.3552   1.0007 0007009 294.2010  65.8495 15.24417720108342"
      },
      "geometry": {
        "type": "Point",
        "coordinates": [
          6.267746858679228,
          -32.703650967178866
        ]
      }
    },
    {
      "type": "Feature",
      "properties": {
        "norad_id": 58660,
        "name": "TIANMU-1 19",
        "group": "weather",
        "lat": 9.09981791022366,
        "lon": -85.30174707496975,
        "alt_km": 485.02716767711627,
        "timestamp": "2025-12-08T10:52:02.591715+00:00",
        "meta_object_name": "TIANMU-1 19",
        "meta_object_id": "2023-208A",
        "meta_epoch": "2025-12-07T21:32:46.787136",
        "meta_mean_motion": 15.27715543,
        "meta_eccentricity": 0.00040252,
        "meta_inclination": 97.4395,
        "meta_ra_of_asc_node": 92.9452,
        "meta_arg_of_pericenter": 274.9457,
        "meta_mean_anomaly": 85.1323,
        "meta_ephemeris_type": 0,
        "meta_classification_type": "U",
        "meta_norad_cat_id": 58660,
        "meta_element_set_no": 999,
        "meta_rev_at_epoch": 10808,
        "meta_bstar": 0.00043837701,
        "meta_mean_motion_dot": 0.00011806,
        "meta_mean_motion_ddot": 0,
        "tle_line1": "1 58660U 23208A   25341.89776374  .00011806  00000+0  43838-3 0  9990",
        "tle_line2": "2 58660  97.4395  92.9452 0004025 274.9457  85.1323 15.27715543108083"
      },
      "geometry": {
        "type": "Point",
        "coordinates": [
          -85.30174707496975,
          9.09981791022366
        ]
      }
    },
    {
      "type": "Feature",
      "properties": {
        "norad_id": 58661,
        "name": "TIANMU-1 20",
        "group": "weather",
        "lat": -46.15352159795389,
        "lon": -93.86960560252705,
        "alt_km": 483.55255106180994,
        "timestamp": "2025-12-08T10:52:02.591728+00:00",
        "meta_object_name": "TIANMU-1 20",
        "meta_object_id": "2023-208B",
        "meta_epoch": "2025-12-07T21:18:45.915552",
        "meta_mean_motion": 15.28906254,
        "meta_eccentricity": 0.00063524,
        "meta_inclination": 97.4332,
        "meta_ra_of_asc_node": 93.3784,
        "meta_arg_of_pericenter": 286.4577,
        "meta_mean_anomaly": 73.5965,
        "meta_ephemeris_type": 0,
        "meta_classification_type": "U",
        "meta_norad_cat_id": 58661,
        "meta_element_set_no": 999,
        "meta_rev_at_epoch": 10815,
        "meta_bstar": 0.00042859993,
        "meta_mean_motion_dot": 0.00011973,
        "meta_mean_motion_ddot": 0,
        "tle_line1": "1 58661U 23208B   25341.88803143  .00011973  00000+0  42860-3 0  9994",
        "tle_line2": "2 58661  97.4332  93.3784 0006352 286.4577  73.5965 15.28906254108157"
      },
      "geometry": {
        "type": "Point",
        "coordinates": [
          -93.86960560252705,
          -46.15352159795389
        ]
      }
    },
    {
      "type": "Feature",
      "properties": {
        "norad_id": 58662,
        "name": "TIANMU-1 21",
        "group": "weather",
        "lat": -12.765950442616587,
        "lon": -85.86443217777284,
        "alt_km": 475.9222532749309,
        "timestamp": "2025-12-08T10:52:02.591739+00:00",
        "meta_object_name": "TIANMU-1 21",
        "meta_object_id": "2023-208C",
        "meta_epoch": "2025-12-07T21:28:55.441632",
        "meta_mean_motion": 15.31393836,
        "meta_eccentricity": 0.00059192,
        "meta_inclination": 97.4381,
        "meta_ra_of_asc_node": 95.2723,
        "meta_arg_of_pericenter": 280.7436,
        "meta_mean_anomaly": 79.3139,
        "meta_ephemeris_type": 0,
        "meta_classification_type": "U",
        "meta_norad_cat_id": 58662,
        "meta_element_set_no": 999,
        "meta_rev_at_epoch": 10825,
        "meta_bstar": 0.00046632027,
        "meta_mean_motion_dot": 0.00014078,
        "meta_mean_motion_ddot": 0,
        "tle_line1": "1 58662U 23208C   25341.89508613  .00014078  00000+0  46632-3 0  9990",
        "tle_line2": "2 58662  97.4381  95.2723 0005919 280.7436  79.3139 15.31393836108253"
      },
      "geometry": {
        "type": "Point",
        "coordinates": [
          -85.86443217777284,
          -12.765950442616587
        ]
      }
    },
    {
      "type": "Feature",
      "properties": {
        "norad_id": 58663,
        "name": "TIANMU-1 22",
        "group": "weather",
        "lat": 4.194915694842277,
        "lon": -85.8908972549254,
        "alt_km": 487.1871781083082,
        "timestamp": "2025-12-08T10:52:02.591749+00:00",
        "meta_object_name": "TIANMU-1 22",
        "meta_object_id": "2023-208D",
        "meta_epoch": "2025-12-07T21:31:22.310400",
        "meta_mean_motion": 15.27479714,
        "meta_eccentricity": 0.0002829,
        "meta_inclination": 97.4388,
        "meta_ra_of_asc_node": 93.0055,
        "meta_arg_of_pericenter": 311.2381,
        "meta_mean_anomaly": 48.8614,
        "meta_ephemeris_type": 0,
        "meta_classification_type": "U",
        "meta_norad_cat_id": 58663,
        "meta_element_set_no": 999,
        "meta_rev_at_epoch": 10809,
        "meta_bstar": 0.00041491477,
        "meta_mean_motion_dot": 0.00011088,
        "meta_mean_motion_ddot": 0,
        "tle_line1": "1 58663U 23208D   25341.89678600  .00011088  00000+0  41491-3 0  9991",
        "tle_line2": "2 58663  97.4388  93.0055 0002829 311.2381  48.8614 15.27479714108097"
      },
      "geometry": {
        "type": "Point",
        "coordinates": [
          -85.8908972549254,
          4.194915694842277
        ]
      }
    },
    {
      "type": "Feature",
      "properties": {
        "norad_id": 58700,
        "name": "TIANMU-1 15",
        "group": "weather",
        "lat": -10.055472284772947,
        "lon": 165.26987026807038,
        "alt_km": 493.18937065872524,
        "timestamp": "2025-12-08T10:52:02.591759+00:00",
        "meta_object_name": "TIANMU-1 15",
        "meta_object_id": "2024-004A",
        "meta_epoch": "2025-12-07T22:18:36.300384",
        "meta_mean_motion": 15.24581817,
        "meta_eccentricity": 0.00054693,
        "meta_inclination": 97.4627,
        "meta_ra_of_asc_node": 163.4168,
        "meta_arg_of_pericenter": 318.0858,
        "meta_mean_anomaly": 41.996,
        "meta_ephemeris_type": 0,
        "meta_classification_type": "U",
        "meta_norad_cat_id": 58700,
        "meta_element_set_no": 999,
        "meta_rev_at_epoch": 10661,
        "meta_bstar": 0.0003828436,
        "meta_mean_motion_dot": 9.37e-05,
        "meta_mean_motion_ddot": 0,
        "tle_line1": "1 58700U 24004A   25341.92958681  .00009370  00000+0  38284-3 0  9999",
        "tle_line2": "2 58700  97.4627 163.4168 0005469 318.0858  41.9960 15.24581817106618"
      },
      "geometry": {
        "type": "Point",
        "coordinates": [
          165.26987026807038,
          -10.055472284772947
        ]
      }
    }
  ]
}